CCSDS_OMM_VERS = 2.0
CREATION_DATE  = 
ORIGINATOR     = 

OBJECT_NAME    = STARLINK-35939
OBJECT_ID      = 2025-268AD
CENTER_NAME    = EARTH
REF_FRAME      = TEME
TIME_SYSTEM    = UTC
MEAN_ELEMENT_THEORY = SGP/SGP4

EPOCH          = 2025-12-10T12:00:02.998944
MEAN_MOTION    = 15.50607251
ECCENTRICITY   = .0001654
INCLINATION    = 43.0001
RA_OF_ASC_NODE = 134.1682
ARG_OF_PERICENTER = 265.1503
MEAN_ANOMALY   = 328.1022

EPHEMERIS_TYPE = 0
CLASSIFICATION_TYPE = U
NORAD_CAT_ID   = 66584
ELEMENT_SET_NO = 999
REV_AT_EPOCH   = 430
BSTAR          = -.14997E-2
MEAN_MOTION_DOT = -.87434E-3
MEAN_MOTION_DDOT = 0

CCSDS_OMM_VERS = 2.0
CREATION_DATE  = 
ORIGINATOR     = 

OBJECT_NAME    = STARLINK-35963
OBJECT_ID      = 2025-268AE
CENTER_NAME    = EARTH
REF_FRAME      = TEME
TIME_SYSTEM    = UTC
MEAN_ELEMENT_THEORY = SGP/SGP4

EPOCH          = 2025-12-10T12:00:02.998944
MEAN_MOTION    = 15.50613431
ECCENTRICITY   = .0001462
INCLINATION    = 43.0002
RA_OF_ASC_NODE = 134.1631
ARG_OF_PERICENTER = 260.7488
MEAN_ANOMALY   = 334.4174

EPHEMERIS_TYPE = 0
CLASSIFICATION_TYPE = U
NORAD_CAT_ID   = 66585
ELEMENT_SET_NO = 999
REV_AT_EPOCH   = 430
BSTAR          = -.16802E-2
MEAN_MOTION_DOT = -.97811E-3
MEAN_MOTION_DDOT = 0

CCSDS_OMM_VERS = 2.0
CREATION_DATE  = 
ORIGINATOR     = 

OBJECT_NAME    = TJS-21
OBJECT_ID      = 2025-269A
CENTER_NAME    = EARTH
REF_FRAME      = TEME
TIME_SYSTEM    = UTC
MEAN_ELEMENT_THEORY = SGP/SGP4

EPOCH          = 2025-12-09T17:35:27.978144
MEAN_MOTION    = 2.00565752
ECCENTRICITY   = .68056573
INCLINATION    = 63.2680
RA_OF_ASC_NODE = 162.6671
ARG_OF_PERICENTER = 269.7843
MEAN_ANOMALY   = 18.6559

EPHEMERIS_TYPE = 0
CLASSIFICATION_TYPE = U
NORAD_CAT_ID   = 66586
ELEMENT_SET_NO = 999
REV_AT_EPOCH   = 37
BSTAR          = -.41606579E-1
MEAN_MOTION_DOT = .108E-4
MEAN_MOTION_DDOT = 0

CCSDS_OMM_VERS = 2.0
CREATION_DATE  = 
ORIGINATOR     = 

OBJECT_NAME    = CZ-3B R/B
OBJECT_ID      = 2025-269B
CENTER_NAME    = EARTH
REF_FRAME      = TEME
TIME_SYSTEM    = UTC
MEAN_ELEMENT_THEORY = SGP/SGP4

EPOCH          = 2025-12-08T20:16:41.011968
MEAN_MOTION    = 2.02868797
ECCENTRICITY   = .75197721
INCLINATION    = 51.3469
RA_OF_ASC_NODE = 170.5472
ARG_OF_PERICENTER = 228.0184
MEAN_ANOMALY   = 37.9661

EPHEMERIS_TYPE = 0
CLASSIFICATION_TYPE = U
NORAD_CAT_ID   = 66587
ELEMENT_SET_NO = 999
REV_AT_EPOCH   = 37
BSTAR          = .12608329E-2
MEAN_MOTION_DOT = .50405E-3
MEAN_MOTION_DDOT = .422103E-6

CCSDS_OMM_VERS = 2.0
CREATION_DATE  = 
ORIGINATOR     = 

OBJECT_NAME    = STARLINK-36076
OBJECT_ID      = 2025-270A
CENTER_NAME    = EARTH
REF_FRAME      = TEME
TIME_SYSTEM    = UTC
MEAN_ELEMENT_THEORY = SGP/SGP4

EPOCH          = 2025-12-10T12:00:02.998944
MEAN_MOTION    = 15.51044918
ECCENTRICITY   = .0001827
INCLINATION    = 42.9998
RA_OF_ASC_NODE = 205.8355
ARG_OF_PERICENTER = 240.7000
MEAN_ANOMALY   = 229.1725

EPHEMERIS_TYPE = 0
CLASSIFICATION_TYPE = U
NORAD_CAT_ID   = 66588
ELEMENT_SET_NO = 999
REV_AT_EPOCH   = 404
BSTAR          = -.13076E-1
MEAN_MOTION_DOT = -.722175E-2
MEAN_MOTION_DDOT = 0

CCSDS_OMM_VERS = 2.0
CREATION_DATE  = 
ORIGINATOR     = 

OBJECT_NAME    = STARLINK-35447
OBJECT_ID      = 2025-270B
CENTER_NAME    = EARTH
REF_FRAME      = TEME
TIME_SYSTEM    = UTC
MEAN_ELEMENT_THEORY = SGP/SGP4

EPOCH          = 2025-12-10T12:00:02.998944
MEAN_MOTION    = 15.51072469
ECCENTRICITY   = .0002186
INCLINATION    = 42.9999
RA_OF_ASC_NODE = 205.8260
ARG_OF_PERICENTER = 256.6936
MEAN_ANOMALY   = 217.0113

EPHEMERIS_TYPE = 0
CLASSIFICATION_TYPE = U
NORAD_CAT_ID   = 66589
ELEMENT_SET_NO = 999
REV_AT_EPOCH   = 414
BSTAR          = -.13559E-1
MEAN_MOTION_DOT = -.747598E-2
MEAN_MOTION_DDOT = 0

CCSDS_OMM_VERS = 2.0
CREATION_DATE  = 
ORIGINATOR     = 

OBJECT_NAME    = STARLINK-35429
OBJECT_ID      = 2025-270C
CENTER_NAME    = EARTH
REF_FRAME      = TEME
TIME_SYSTEM    = UTC
MEAN_ELEMENT_THEORY = SGP/SGP4

EPOCH          = 2025-12-10T12:00:02.998944
MEAN_MOTION    = 15.51074430
ECCENTRICITY   = .0002219
INCLINATION    = 42.9998
RA_OF_ASC_NODE = 205.8312
ARG_OF_PERICENTER = 255.7953
MEAN_ANOMALY   = 215.9914

EPHEMERIS_TYPE = 0
CLASSIFICATION_TYPE = U
NORAD_CAT_ID   = 66590
ELEMENT_SET_NO = 999
REV_AT_EPOCH   = 414
BSTAR          = -.13606E-1
MEAN_MOTION_DOT = -.750057E-2
MEAN_MOTION_DDOT = 0

CCSDS_OMM_VERS = 2.0
CREATION_DATE  = 
ORIGINATOR     = 

OBJECT_NAME    = STARLINK-36058
OBJECT_ID      = 2025-270D
CENTER_NAME    = EARTH
REF_FRAME      = TEME
TIME_SYSTEM    = UTC
MEAN_ELEMENT_THEORY = SGP/SGP4

EPOCH          = 2025-12-10T12:00:02.998944
MEAN_MOTION    = 15.51064262
ECCENTRICITY   = .0002108
INCLINATION    = 43.0000
RA_OF_ASC_NODE = 205.8213
ARG_OF_PERICENTER = 260.2527
MEAN_ANOMALY   = 215.3732

EPHEMERIS_TYPE = 0
CLASSIFICATION_TYPE = U
NORAD_CAT_ID   = 66591
ELEMENT_SET_NO = 999
REV_AT_EPOCH   = 404
BSTAR          = -.13348E-1
MEAN_MOTION_DOT = -.736638E-2
MEAN_MOTION_DDOT = 0

CCSDS_OMM_VERS = 2.0
CREATION_DATE  = 
ORIGINATOR     = 

OBJECT_NAME    = STARLINK-36066
OBJECT_ID      = 2025-270E
CENTER_NAME    = EARTH
REF_FRAME      = TEME
TIME_SYSTEM    = UTC
MEAN_ELEMENT_THEORY = SGP/SGP4

EPOCH          = 2025-12-10T12:00:02.998944
MEAN_MOTION    = 15.51068918
ECCENTRICITY   = .0002121
INCLINATION    = 42.9998
RA_OF_ASC_NODE = 205.8165
ARG_OF_PERICENTER = 256.5567
MEAN_ANOMALY   = 220.9844

EPHEMERIS_TYPE = 0
CLASSIFICATION_TYPE = U
NORAD_CAT_ID   = 66592
ELEMENT_SET_NO = 999
REV_AT_EPOCH   = 394
BSTAR          = -.1348E-1
MEAN_MOTION_DOT = -.743507E-2
MEAN_MOTION_DDOT = 0

CCSDS_OMM_VERS = 2.0
CREATION_DATE  = 
ORIGINATOR     = 

OBJECT_NAME    = STARLINK-36031
OBJECT_ID      = 2025-270F
CENTER_NAME    = EARTH
REF_FRAME      = TEME
TIME_SYSTEM    = UTC
MEAN_ELEMENT_THEORY = SGP/SGP4

EPOCH          = 2025-12-10T12:00:02.998944
MEAN_MOTION    = 15.51061533
ECCENTRICITY   = .0001817
INCLINATION    = 42.9997
RA_OF_ASC_NODE = 205.8115
ARG_OF_PERICENTER = 245.8694
MEAN_ANOMALY   = 233.5911

EPHEMERIS_TYPE = 0
CLASSIFICATION_TYPE = U
NORAD_CAT_ID   = 66593
ELEMENT_SET_NO = 999
REV_AT_EPOCH   = 404
BSTAR          = -.13801E-1
MEAN_MOTION_DOT = -.759595E-2
MEAN_MOTION_DDOT = 0

CCSDS_OMM_VERS = 2.0
CREATION_DATE  = 
ORIGINATOR     = 

OBJECT_NAME    = STARLINK-36032
OBJECT_ID      = 2025-270G
CENTER_NAME    = EARTH
REF_FRAME      = TEME
TIME_SYSTEM    = UTC
MEAN_ELEMENT_THEORY = SGP/SGP4

EPOCH          = 2025-12-10T12:00:02.998944
MEAN_MOTION    = 15.51066160
ECCENTRICITY   = .0002121
INCLINATION    = 42.9995
RA_OF_ASC_NODE = 205.8068
ARG_OF_PERICENTER = 257.0946
MEAN_ANOMALY   = 224.2809

EPHEMERIS_TYPE = 0
CLASSIFICATION_TYPE = U
NORAD_CAT_ID   = 66594
ELEMENT_SET_NO = 999
REV_AT_EPOCH   = 377
BSTAR          = -.1339E-1
MEAN_MOTION_DOT = -.738841E-2
MEAN_MOTION_DDOT = 0

CCSDS_OMM_VERS = 2.0
CREATION_DATE  = 
ORIGINATOR     = 

OBJECT_NAME    = STARLINK-35711
OBJECT_ID      = 2025-270H
CENTER_NAME    = EARTH
REF_FRAME      = TEME
TIME_SYSTEM    = UTC
MEAN_ELEMENT_THEORY = SGP/SGP4

EPOCH          = 2025-12-10T12:00:02.998944
MEAN_MOTION    = 15.51080353
ECCENTRICITY   = .0001797
INCLINATION    = 42.9997
RA_OF_ASC_NODE = 205.8017
ARG_OF_PERICENTER = 239.8228
MEAN_ANOMALY   = 243.4996

EPHEMERIS_TYPE = 0
CLASSIFICATION_TYPE = U
NORAD_CAT_ID   = 66595
ELEMENT_SET_NO = 999
REV_AT_EPOCH   = 414
BSTAR          = -.15336E-1
MEAN_MOTION_DOT = -.837468E-2
MEAN_MOTION_DDOT = 0

CCSDS_OMM_VERS = 2.0
CREATION_DATE  = 
ORIGINATOR     = 

OBJECT_NAME    = STARLINK-35811
OBJECT_ID      = 2025-270J
CENTER_NAME    = EARTH
REF_FRAME      = TEME
TIME_SYSTEM    = UTC
MEAN_ELEMENT_THEORY = SGP/SGP4

EPOCH          = 2025-12-10T12:00:02.998944
MEAN_MOTION    = 15.51046542
ECCENTRICITY   = .0002337
INCLINATION    = 42.9996
RA_OF_ASC_NODE = 205.7973
ARG_OF_PERICENTER = 257.5715
MEAN_ANOMALY   = 227.6521

EPHEMERIS_TYPE = 0
CLASSIFICATION_TYPE = U
NORAD_CAT_ID   = 66596
ELEMENT_SET_NO = 999
REV_AT_EPOCH   = 414
BSTAR          = -.12973E-1
MEAN_MOTION_DOT = -.717045E-2
MEAN_MOTION_DDOT = 0

CCSDS_OMM_VERS = 2.0
CREATION_DATE  = 
ORIGINATOR     = 

OBJECT_NAME    = STARLINK-35820
OBJECT_ID      = 2025-270K
CENTER_NAME    = EARTH
REF_FRAME      = TEME
TIME_SYSTEM    = UTC
MEAN_ELEMENT_THEORY = SGP/SGP4

EPOCH          = 2025-12-10T12:00:02.998944
MEAN_MOTION    = 15.51059871
ECCENTRICITY   = .0002042
INCLINATION    = 42.9997
RA_OF_ASC_NODE = 205.7923
ARG_OF_PERICENTER = 255.4232
MEAN_ANOMALY   = 231.7066

EPHEMERIS_TYPE = 0
CLASSIFICATION_TYPE = U
NORAD_CAT_ID   = 66597
ELEMENT_SET_NO = 999
REV_AT_EPOCH   = 414
BSTAR          = -.13243E-1
MEAN_MOTION_DOT = -.731148E-2
MEAN_MOTION_DDOT = 0

CCSDS_OMM_VERS = 2.0
CREATION_DATE  = 
ORIGINATOR     = 

OBJECT_NAME    = STARLINK-35981
OBJECT_ID      = 2025-270L
CENTER_NAME    = EARTH
REF_FRAME      = TEME
TIME_SYSTEM    = UTC
MEAN_ELEMENT_THEORY = SGP/SGP4

EPOCH          = 2025-12-10T12:00:02.998944
MEAN_MOTION    = 15.51064868
ECCENTRICITY   = .0001828
INCLINATION    = 42.9998
RA_OF_ASC_NODE = 205.7872
ARG_OF_PERICENTER = 247.8364
MEAN_ANOMALY   = 241.2080

EPHEMERIS_TYPE = 0
CLASSIFICATION_TYPE = U
NORAD_CAT_ID   = 66598
ELEMENT_SET_NO = 999
REV_AT_EPOCH   = 388
BSTAR          = -.13847E-1
MEAN_MOTION_DOT = -.76203E-2
MEAN_MOTION_DDOT = 0

